OBJECT_NAME,OBJECT_ID,EPOCH,MEAN_MOTION,ECCENTRICITY,INCLINATION,RA_OF_ASC_NODE,ARG_OF_PERICENTER,MEAN_ANOMALY,EPHEMERIS_TYPE,CLASSIFICATION_TYPE,NORAD_CAT_ID,ELEMENT_SET_NO,REV_AT_EPOCH,BSTAR,MEAN_MOTION_DOT,MEAN_MOTION_DDOT
BEIDOU-2 M4,2012-018B,2026-06-16T14:00:59.327136,1.86229375,.0011292,55.6586,304.1100,275.7806,84.0759,0,U,38251,999,9593,0,-.71E-6,0
ARIRANG-3 (KOMPSAT-3),2012-025B,2026-06-17T20:29:35.018592,14.62206703,.0006692,98.1171,126.3023,107.6712,252.5221,0,U,38338,999,75144,.77109E-4,.342E-5,0
METOP-B,2012-049A,2026-06-17T19:45:19.880928,14.21432878,.0002197,98.6504,220.3097,18.1455,341.9801,0,U,38771,999,71335,.55884E-4,.79E-6,0
SJ-9A,2012-056A,2026-06-17T18:29:48.096384,14.85479305,.0024003,97.6709,140.7010,254.6297,105.2266,0,U,38860,999,69967,.9321E-4,.755E-5,0
COSMOS 2484 (RODNIK-S 6),2013-001C,2026-06-17T20:53:32.855424,12.42939540,.0026861,82.5012,221.4678,35.1606,325.1240,0,U,39059,999,60864,.77607E-3,.118E-5,0
SARAL,2013-009A,2026-06-17T19:25:01.909632,14.32856107,.0000687,98.5556,355.3683,304.7351,55.3768,0,U,39086,999,69569,.40337E-4,.66E-6,0
STRAND-1,2013-009E,2026-06-17T09:41:55.726080,14.37163347,.00077409,98.3921,348.6331,224.5374,135.5192,0,U,39090,999,69709,.81522644E-4,.2E-5,0
BRITE-AUSTRIA,2013-009F,2026-06-17T10:00:36.259776,14.36542205,.00091616,98.3994,347.8470,235.6981,124.3339,0,U,39091,999,69708,.59166614E-4,.131E-5,0
GAOFEN-1,2013-018A,2026-06-17T21:01:44.862816,14.76535379,.001568,97.9097,240.9299,264.0846,95.8577,0,U,39150,999,70834,-.32076E-5,-.73E-6,0
NEE-01 PEGASO,2013-018B,2026-06-17T03:09:32.525280,14.93659532,.00130992,98.1222,312.2794,159.5511,200.6235,0,U,39151,999,71069,.21709895E-3,.2236E-4,0
PROBA-V,2013-021A,2026-06-17T19:43:41.079936,14.23597042,.0005165,98.3584,147.3973,121.9484,238.2198,0,U,39159,999,68120,.36393E-4,.42E-6,0
ARIRANG-5 (KOMPSAT-5),2013-042A,2026-06-17T19:56:55.306752,15.04494428,.0005403,97.6200,355.5227,118.3277,241.8494,0,U,39227,999,70395,.68204E-4,.894E-5,0
GONETS-M 5,2013-048A,2026-06-17T20:08:42.807840,12.42891738,.0016113,82.4827,342.9752,208.9034,151.1155,0,U,39249,999,57896,-.19332E-3,-.17E-6,0
GONETS-M 7,2013-048C,2026-06-17T21:11:16.141344,12.42914584,.0016884,82.4893,345.8709,210.2192,149.7915,0,U,39251,999,57892,-.17932E-3,-.15E-6,0
FENGYUN 3C,2013-052A,2026-06-17T19:42:33.678432,14.15755109,.0015227,98.4987,142.6669,25.8728,334.3205,0,U,39260,999,65865,.50054E-4,.57E-6,0
CASSIOPE,2013-055A,2026-06-17T19:38:02.556960,15.25243540,.0292536,80.9141,65.9560,60.3279,302.6736,0,U,39265,999,66776,.47993E-3,.44002E-3,-.50921E-6
APRIZESAT 7,2013-066A,2026-06-17T19:47:43.800864,14.91565344,.0035048,97.7709,122.0355,207.1269,152.8120,0,U,39416,999,68132,.10411E-3,.998E-5,0
ZACUBE-1 (TSHEPISOSAT),2013-066B,2026-06-17T19:22:23.755296,15.01191740,.0040884,97.8078,131.1473,245.5707,114.1249,0,U,39417,999,68082,.19168E-3,.2437E-4,0
APRIZESAT 8,2013-066K,2026-06-17T19:32:14.845344,14.87653721,.0044416,97.8220,116.2732,284.4333,75.1956,0,U,39425,999,67976,.88832E-4,.765E-5,0
TRITON-1,2013-066M,2026-06-17T20:03:39.748608,14.81705974,.0088521,97.8251,78.6286,231.7956,127.5263,0,U,39427,999,67418,.14551E-3,.1168E-4,0
